{"type": "FeatureCollection", "features": [ {"type": "Feature", "properties": {"norad_id": 32366, "name": "FENGYUN 1C DEB", "group": "fengyun-1c-debris", "lat": -45.90807662075689, "lon": -68.31637060900054, "alt_km": 753.8437149033061, "timestamp": "2025-12-25T09:48:52.576493+00:00", "meta": {"OBJECT_NAME": "FENGYUN 1C DEB", "OBJECT_ID": "1999-025CZK", "EPOCH": "2025-12-24T02:10:11.884512", "MEAN_MOTION": 14.1390733, "ECCENTRICITY": 0.01370794, "INCLINATION": 96.7749, "RA_OF_ASC_NODE": 117.7307, "ARG_OF_PERICENTER": 233.0077, "MEAN_ANOMALY": 125.8492, "EPHEMERIS_TYPE": 0, "CLASSIFICATION_TYPE": "U", "NORAD_CAT_ID": 32366, "ELEMENT_SET_NO": 999, "REV_AT_EPOCH": 93364, "BSTAR": 0.001723619, "MEAN_MOTION_DOT": 3.548e-05, "MEAN_MOTION_DDOT": 0}, "tle": {"line1": "1 32366U 99025CZK 25358.09041533  .00003548  00000+0  17236-2 0  9993", "line2": "2 32366  96.7749 117.7307 0137079 233.0077 125.8492 14.13907330933646"}}, "geometry": {"type": "Point", "coordinates": [-68.31637060900054, -45.90807662075689]}}, {"type": "Feature", "properties": {"norad_id": 32372, "name": "FENGYUN 1C DEB", "group": "fengyun-1c-debris", "lat": 1.5898978194755427, "lon": -123.23492209546666, "alt_km": 786.2555786051716, "timestamp": "2025-12-25T09:48:52.576504+00:00", "meta": {"OBJECT_NAME": "FENGYUN 1C DEB", "OBJECT_ID": "1999-025CZR", "EPOCH": "2025-12-11T11:21:44.110080", "MEAN_MOTION": 13.35367723, "ECCENTRICITY": 0.04586798, "INCLINATION": 97.3163, "RA_OF_ASC_NODE": 226.9338, "ARG_OF_PERICENTER": 43.4714, "MEAN_ANOMALY": 320.164, "EPHEMERIS_TYPE": 0, "CLASSIFICATION_TYPE": "U", "NORAD_CAT_ID": 32372, "ELEMENT_SET_NO": 999, "REV_AT_EPOCH": 60123, "BSTAR": 0.003543376, "MEAN_MOTION_DOT": 3.249e-05, "MEAN_MOTION_DDOT": 0}, "tle": {"line1": "1 32372U 99025CZR 25345.47342720  .00003249  00000+0  35434-2 0  9998", "line2": "2 32372  97.3163 226.9338 0458679  43.4714 320.1640 13.35367723601231"}}, "geometry": {"type": "Point", "coordinates": [-123.23492209546666, 1.5898978194755427]}}, {"type": "Feature", "properties": {"norad_id": 32409, "name": "FENGYUN 1C DEB", "group": "fengyun-1c-debris", "lat": -14.29017695548152, "lon": 168.04383738410573, "alt_km": 661.5717621037857, "timestamp": "2025-12-25T09:48:52.576513+00:00", "meta": {"OBJECT_NAME": "FENGYUN 1C DEB", "OBJECT_ID": "1999-025CZV", "EPOCH": "2025-12-24T17:41:01.140864", "MEAN_MOTION": 14.76584409, "ECCENTRICITY": 0.00389222, "INCLINATION": 99.5678, "RA_OF_ASC_NODE": 164.7862, "ARG_OF_PERICENTER": 116.043, "MEAN_ANOMALY": 259.1652, "EPHEMERIS_TYPE": 0, "CLASSIFICATION_TYPE": "U", "NORAD_CAT_ID": 32409, "ELEMENT_SET_NO": 999, "REV_AT_EPOCH": 59016, "BSTAR": 0.0019717094, "MEAN_MOTION_DOT": 0.00013891, "MEAN_MOTION_DDOT": 0}, "tle": {"line1": "1 32409U 99025CZV 25358.73681876  .00013891  00000+0  19717-2 0  9990", "line2": "2 32409  99.5678 164.7862 0038922 116.0430 259.1652 14.76584409590166"}}, "geometry": {"type": "Point", "coordinates": [168.04383738410573, -14.29017695548152]}}, {"type": "Feature", "properties": {"norad_id": 32411, "name": "FENGYUN 1C DEB", "group": "fengyun-1c-debris", "lat": 30.317624441833818, "lon": 101.54911623663617, "alt_km": 946.13782285446, "timestamp": "2025-12-25T09:48:52.576524+00:00", "meta": {"OBJECT_NAME": "FENGYUN 1C DEB", "OBJECT_ID": "1999-025CZX", "EPOCH": "2025-12-22T01:03:16.729632", "MEAN_MOTION": 14.09827877, "ECCENTRICITY": 0.01237302, "INCLINATION": 98.4304, "RA_OF_ASC_NODE": 273.4205, "ARG_OF_PERICENTER": 349.967, "MEAN_ANOMALY": 9.9034, "EPHEMERIS_TYPE": 0, "CLASSIFICATION_TYPE": "U", "NORAD_CAT_ID": 32411, "ELEMENT_SET_NO": 999, "REV_AT_EPOCH": 65945, "BSTAR": 0.00050914783, "MEAN_MOTION_DOT": 9.2e-06, "MEAN_MOTION_DDOT": 0}, "tle": {"line1": "1 32411U 99025CZX 25356.04394363  .00000920  00000+0  50915-3 0  9992", "line2": "2 32411  98.4304 273.4205 0123730 349.9670   9.9034 14.09827877659455"}}, "geometry": {"type": "Point", "coordinates": [101.54911623663617, 30.317624441833818]}}, {"type": "Feature", "properties": {"norad_id": 32414, "name": "FENGYUN 1C DEB", "group": "fengyun-1c-debris", "lat": -75.97020690789537, "lon": 108.6544177834295, "alt_km": 812.8412941335173, "timestamp": "2025-12-25T09:48:52.576534+00:00", "meta": {"OBJECT_NAME": "FENGYUN 1C DEB", "OBJECT_ID": "1999-025DAA", "EPOCH": "2025-12-23T04:00:39.098880", "MEAN_MOTION": 14.18463584, "ECCENTRICITY": 0.00450064, "INCLINATION": 98.8569, "RA_OF_ASC_NODE": 67.8084, "ARG_OF_PERICENTER": 327.2126, "MEAN_ANOMALY": 32.6258, "EPHEMERIS_TYPE": 0, "CLASSIFICATION_TYPE": "U", "NORAD_CAT_ID": 32414, "ELEMENT_SET_NO": 999, "REV_AT_EPOCH": 93880, "BSTAR": 0.0013631783, "MEAN_MOTION_DOT": 2.8e-05, "MEAN_MOTION_DDOT": 0}, "tle": {"line1": "1 32414U 99025DAA 25357.16711920  .00002800  00000+0  13632-2 0  9994", "line2": "2 32414  98.8569  67.8084 0045006 327.2126  32.6258 14.18463584938800"}}, "geometry": {"type": "Point", "coordinates": [108.6544177834295, -75.97020690789537]}}, {"type": "Feature", "properties": {"norad_id": 32419, "name": "FENGYUN 1C DEB", "group": "fengyun-1c-debris", "lat": 54.05378557581797, "lon": -77.8795135422912, "alt_km": 755.243744341311, "timestamp": "2025-12-25T09:48:52.576544+00:00", "meta": {"OBJECT_NAME": "FENGYUN 1C DEB", "OBJECT_ID": "1999-025DAF", "EPOCH": "2025-12-11T15:09:56.013984", "MEAN_MOTION": 14.09908253, "ECCENTRICITY": 0.02839501, "INCLINATION": 97.9459, "RA_OF_ASC_NODE": 281.0334, "ARG_OF_PERICENTER": 32.1797, "MEAN_ANOMALY": 329.6358, "EPHEMERIS_TYPE": 0, "CLASSIFICATION_TYPE": "U", "NORAD_CAT_ID": 32419, "ELEMENT_SET_NO": 999, "REV_AT_EPOCH": 63555, "BSTAR": 0.0013854285, "MEAN_MOTION_DOT": 3.513e-05, "MEAN_MOTION_DDOT": 0}, "tle": {"line1": "1 32419U 99025DAF 25345.63189831  .00003513  00000+0  13854-2 0  9996", "line2": "2 32419  97.9459 281.0334 0283950  32.1797 329.6358 14.09908253635552"}}, "geometry": {"type": "Point", "coordinates": [-77.8795135422912, 54.05378557581797]}}, {"type": "Feature", "properties": {"norad_id": 32422, "name": "FENGYUN 1C DEB", "group": "fengyun-1c-debris", "lat": 31.553930494066616, "lon": 124.2431083591772, "alt_km": 1050.2758208629575, "timestamp": "2025-12-25T09:48:52.576570+00:00", "meta": {"OBJECT_NAME": "FENGYUN 1C DEB", "OBJECT_ID": "1999-025DAJ", "EPOCH": "2025-12-18T14:28:39.254304", "MEAN_MOTION": 13.98014994, "ECCENTRICITY": 0.02982939, "INCLINATION": 97.8414, "RA_OF_ASC_NODE": 123.2691, "ARG_OF_PERICENTER": 275.9311, "MEAN_ANOMALY": 80.7936, "EPHEMERIS_TYPE": 0, "CLASSIFICATION_TYPE": "U", "NORAD_CAT_ID": 32422, "ELEMENT_SET_NO": 999, "REV_AT_EPOCH": 63215, "BSTAR": 0.00020595213, "MEAN_MOTION_DOT": 3.88e-06, "MEAN_MOTION_DDOT": 0}, "tle": {"line1": "1 32422U 99025DAJ 25352.60323211  .00000388  00000+0  20595-3 0  9995", "line2": "2 32422  97.8414 123.2691 0298293 275.9311  80.7936 13.98014994632151"}}, "geometry": {"type": "Point", "coordinates": [124.2431083591772, 31.553930494066616]}}, {"type": "Feature", "properties": {"norad_id": 32425, "name": "FENGYUN 1C DEB", "group": "fengyun-1c-debris", "lat": 76.37126364393997, "lon": -6.347566681479872, "alt_km": 984.8786670911695, "timestamp": "2025-12-25T09:48:52.576581+00:00", "meta": {"OBJECT_NAME": "FENGYUN 1C DEB", "OBJECT_ID": "1999-025DAM", "EPOCH": "2025-12-12T16:13:12.115488", "MEAN_MOTION": 14.16741504, "ECCENTRICITY": 0.02316015, "INCLINATION": 96.7012, "RA_OF_ASC_NODE": 135.0318, "ARG_OF_PERICENTER": 299.6477, "MEAN_ANOMALY": 58.1818, "EPHEMERIS_TYPE": 0, "CLASSIFICATION_TYPE": "U", "NORAD_CAT_ID": 32425, "ELEMENT_SET_NO": 999, "REV_AT_EPOCH": 69534, "BSTAR": 0.00075748036, "MEAN_MOTION_DOT": 1.938e-05, "MEAN_MOTION_DDOT": 0}, "tle": {"line1": "1 32425U 99025DAM 25346.67583467  .00001938  00000+0  75748-3 0  9991", "line2": "2 32425  96.7012 135.0318 0231601 299.6477  58.1818 14.16741504695342"}}, "geometry": {"type": "Point", "coordinates": [-6.347566681479872, 76.37126364393997]}}, {"type": "Feature", "properties": {"norad_id": 32430, "name": "FENGYUN 1C DEB", "group": "fengyun-1c-debris", "lat": -81.20877301246308, "lon": 121.24289706196681, "alt_km": 772.5887125144609, "timestamp": "2025-12-25T09:48:52.576591+00:00", "meta": {"OBJECT_NAME": "FENGYUN 1C DEB", "OBJECT_ID": "1999-025DAS", "EPOCH": "2025-12-23T07:25:42.823488", "MEAN_MOTION": 13.70184988, "ECCENTRICITY": 0.03703317, "INCLINATION": 98.6958, "RA_OF_ASC_NODE": 21.0606, "ARG_OF_PERICENTER": 241.96, "MEAN_ANOMALY": 114.3635, "EPHEMERIS_TYPE": 0, "CLASSIFICATION_TYPE": "U", "NORAD_CAT_ID": 32430, "ELEMENT_SET_NO": 999, "REV_AT_EPOCH": 91348, "BSTAR": 0.002006586, "MEAN_MOTION_DOT": 2.83e-05, "MEAN_MOTION_DDOT": 0}, "tle": {"line1": "1 32430U 99025DAS 25357.30952342  .00002830  00000+0  20066-2 0  9995", "line2": "2 32430  98.6958  21.0606 0370331 241.9600 114.3635 13.70184988913480"}}, "geometry": {"type": "Point", "coordinates": [121.24289706196681, -81.20877301246308]}}, {"type": "Feature", "properties": {"norad_id": 32432, "name": "FENGYUN 1C DEB", "group": "fengyun-1c-debris", "lat": -74.44157294922354, "lon": -175.79470529795566, "alt_km": 603.5878998301187, "timestamp": "2025-12-25T09:48:52.576601+00:00", "meta": {"OBJECT_NAME": "FENGYUN 1C DEB", "OBJECT_ID": "1999-025DAU", "EPOCH": "2025-12-23T20:15:23.310720", "MEAN_MOTION": 14.52617697, "ECCENTRICITY": 0.0172618, "INCLINATION": 98.1696, "RA_OF_ASC_NODE": 33.7423, "ARG_OF_PERICENTER": 271.2687, "MEAN_ANOMALY": 86.874, "EPHEMERIS_TYPE": 0, "CLASSIFICATION_TYPE": "U", "NORAD_CAT_ID": 32432, "ELEMENT_SET_NO": 999, "REV_AT_EPOCH": 70856, "BSTAR": 0.0014396, "MEAN_MOTION_DOT": 7.12e-05, "MEAN_MOTION_DDOT": 0}, "tle": {"line1": "1 32432U 99025DAU 25357.84401980  .00007120  00000+0  14396-2 0  9999", "line2": "2 32432  98.1696  33.7423 0172618 271.2687  86.8740 14.52617697708562"}}, "geometry": {"type": "Point", "coordinates": [-175.79470529795566, -74.44157294922354]}}]}